{
    "links": {
        "self": "http://www.neowsapp.com/rest/v1/neo/3691092?api_key=iIulBulltgU6a56xZRHN4H3l9WmuAYTsLGpBGhQ2"
    },
    "id": "3691092",
    "neo_reference_id": "3691092",
    "name": "(2014 SN260)",
    "designation": "2014 SN260",
    "nasa_jpl_url": "http://ssd.jpl.nasa.gov/sbdb.cgi?sstr=3691092",
    "absolute_magnitude_h": 24.5,
    "estimated_diameter": {
        "kilometers": {
            "estimated_diameter_min": 0.0334622374,
            "estimated_diameter_max": 0.0748238376
        },
        "meters": {
            "estimated_diameter_min": 33.4622374455,
            "estimated_diameter_max": 74.8238376074
        },
        "miles": {
            "estimated_diameter_min": 0.0207924639,
            "estimated_diameter_max": 0.0464933628
        },
        "feet": {
            "estimated_diameter_min": 109.7842471007,
            "estimated_diameter_max": 245.4850393757
        }
    },
    "is_potentially_hazardous_asteroid": false,
    "close_approach_data": [
        {
            "close_approach_date": "2014-10-17",
            "close_approach_date_full": "2014-Oct-17 08:24",
            "epoch_date_close_approach": 1413534240000,
            "relative_velocity": {
                "kilometers_per_second": "9.5974162594",
                "kilometers_per_hour": "34550.698533696",
                "miles_per_hour": "21468.4604305624"
            },
            "miss_distance": {
                "astronomical": "0.0666778199",
                "lunar": "25.9376719411",
                "kilometers": "9974859.833283613",
                "miles": "6198090.4911273394"
            },
            "orbiting_body": "Earth"
        },
        {
            "close_approach_date": "2015-03-02",
            "close_approach_date_full": "2015-Mar-02 15:13",
            "epoch_date_close_approach": 1425309180000,
            "relative_velocity": {
                "kilometers_per_second": "6.1404708279",
                "kilometers_per_hour": "22105.6949804346",
                "miles_per_hour": "13735.6191949261"
            },
            "miss_distance": {
                "astronomical": "0.3665677396",
                "lunar": "142.5948507044",
                "kilometers": "54837753.054874652",
                "miles": "34074599.6881161176"
            },
            "orbiting_body": "Earth"
        }
    ],
    "orbital_data": {
        "orbit_id": "5",
        "orbit_determination_date": "2017-04-06 08:38:26",
        "first_observation_date": "2014-09-23",
        "last_observation_date": "2014-09-29",
        "data_arc_in_days": 6,
        "observations_used": 24,
        "orbit_uncertainty": "8",
        "minimum_orbit_intersection": ".0662463",
        "jupiter_tisserand_invariant": "4.598",
        "epoch_osculation": "2456925.5",
        "eccentricity": ".363123745373559",
        "semi_major_axis": "1.431160357512058",
        "inclination": "9.966393217236456",
        "ascending_node_longitude": "186.1088207648426",
        "orbital_period": "625.3611157732882",
        "perihelion_distance": ".9114720482621176",
        "perihelion_argument": "254.4273422243292",
        "aphelion_distance": "1.950848666761998",
        "perihelion_time": "2456994.182648002006",
        "mean_anomaly": "320.4616394318863",
        "mean_motion": ".5756673878817092",
        "equinox": "J2000",
        "orbit_class": {
            "orbit_class_type": "APO",
            "orbit_class_description": "Near-Earth asteroid orbits which cross the Earth’s orbit similar to that of 1862 Apollo",
            "orbit_class_range": "a (semi-major axis) > 1.0 AU; q (perihelion) < 1.017 AU"
        }
    },
    "is_sentry_object": false
}